QIANFAN-65              
1 62795U 25016L   25202.82247164  .00000119  00000+0  16600-3 0  9994
2 62795  88.9843 117.9201 0015947  44.1460 316.0961 13.50957316 27811
QIANFAN-66              
1 62796U 25016M   25202.55487913  .00000113  00000+0  15655-3 0  9996
2 62796  88.9862 117.8893 0016994  40.5964 319.6451 13.50959496 27826
QIANFAN-67              
1 62797U 25016N   25202.55914993  .00000115  00000+0  15971-3 0  9993
2 62797  88.9853 117.9286 0017110  46.6778 313.5796 13.50961016 27797
QIANFAN-68              
1 62798U 25016P   25202.56317913  .00000121  00000+0  16919-3 0  9994
2 62798  88.9856 117.9713 0017704  44.9822 315.2760 13.50958433 27773
QIANFAN-69              
1 62799U 25016Q   25202.49316423  .00000125  00000+0  17545-3 0  9992
2 62799  88.9835 117.8759 0017892  46.0742 314.1882 13.50959342 27809
QIANFAN-70              
1 62800U 25016R   25202.58376869  .00000119  00000+0  16547-3 0  9999
2 62800  88.9856 117.9744 0017265  37.3911 322.8438 13.50957875 27773
QIANFAN-71              
1 62801U 25016S   25202.57973394  .00000127  00000+0  17840-3 0  9991
2 62801  88.9850 117.9632 0017868  48.9652 311.3040 13.50957767 27775
QIANFAN-72              
1 62802U 25016T   25202.50140925  .00000131  00000+0  18390-3 0  9997
2 62802  88.9840 117.9939 0021378  54.4130 305.9010 13.50959368 27752
